51755,STARLINK-3460,2022,95.44,260.0,+,53.22,Active,1,LEO,USA,USA,Commercial,Communications,Falcon,1 51755U 22016AT  25295.18554223  .00001111  00000+0  87935-4 0  9996,2 51755  53.2170 210.8892 0001438  89.5319 270.5838 15.08830666202790,15.08830666,0.0001438,LEO
51756,STARLINK-3513,2022,95.44,260.0,+,53.22,Active,1,LEO,USA,USA,Commercial,Communications,Falcon,1 51756U 22016AU  25295.48729933  .00001902  00000+0  13752-3 0  9995,2 51756  53.2175 209.5349 0001270  88.5356 271.5781 15.08841796202842,15.08841796,0.000127,LEO
51757,STARLINK-3459,2022,95.44,260.0,+,53.22,Active,1,LEO,USA,USA,Commercial,Communications,Falcon,1 51757U 22016AV  25295.48456918  .00001964  00000+0  14142-3 0  9998,2 51757  53.2180 209.5567 0001245  76.3517 283.7613 15.08848040202845,15.0884804,0.0001245,LEO
51758,STARLINK-3458,2022,95.44,260.0,+,53.22,Active,1,LEO,USA,USA,Commercial,Communications,Falcon,1 51758U 22016AW  25295.47625508 -.00001008  00000+0 -45239-4 0  9994,2 51758  53.2164 209.5372 0001436  84.0297 276.0858 15.08838411203988,15.08838411,0.0001436,LEO
51759,STARLINK-3456,2022,95.44,260.0,+,53.22,Active,1,LEO,USA,USA,Commercial,Communications,Falcon,1 51759U 22016AX  25295.47993834  .00000375  00000+0  41638-4 0  9998,2 51759  53.2159 209.5671 0001721  78.3445 281.7741 15.08839111202849,15.08839111,0.0001721,LEO
51768,STARLINK-3622,2022,95.44,260.0,+,53.22,Active,1,LEO,USA,USA,Commercial,Communications,Falcon,1 51768U 22017A   25295.24534060  .00001960  00000+0  14123-3 0  9995,2 51768  53.2151 240.6230 0001186  84.1079 276.0049 15.08836356203141,15.08836356,0.0001186,LEO
51769,STARLINK-3621,2022,95.44,260.0,+,53.22,Active,1,LEO,USA,USA,Commercial,Communications,Falcon,1 51769U 22017B   25295.23797959  .00002853  00000+0  19726-3 0  9999,2 51769  53.2180 240.6557 0001412  94.5456 265.5698 15.08837877201704,15.08837877,0.0001412,LEO
51770,STARLINK-3612,2022,95.44,260.0,+,53.22,Active,1,LEO,USA,USA,Commercial,Communications,Falcon,1 51770U 22017C   25295.24165874  .00002079  00000+0  14864-3 0  9995,2 51770  53.2182 240.6384 0001396  91.6703 268.4450 15.08840133201718,15.08840133,0.0001396,LEO
51771,STARLINK-3614,2022,95.44,260.0,+,53.22,Active,1,LEO,USA,USA,Commercial,Communications,Falcon,1 51771U 22017D   25295.23428591  .00002919  00000+0  20137-3 0  9996,2 51771  53.2183 240.6625 0001626  82.5781 277.5396 15.08851538201709,15.08851538,0.0001626,LEO
51772,STARLINK-3623,2022,95.44,260.0,+,53.22,Active,1,LEO,USA,USA,Commercial,Communications,Falcon,1 51772U 22017E   25295.16070182 -.00000697  00000+0 -25700-4 0  9993,2 51772  53.2181 241.0033 0001622  99.1375 260.9800 15.08836903201687,15.08836903,0.0001622,LEO
51773,STARLINK-3624,2022,95.44,260.0,+,53.22,Active,1,LEO,USA,USA,Commercial,Communications,Falcon,1 51773U 22017F   25295.23157336  .00001456  00000+0  10959-3 0  9990,2 51773  53.2176 240.6564 0001720  96.0267 264.0921 15.08839812201705,15.08839812,0.000172,LEO
51774,STARLINK-3629,2022,95.44,260.0,+,53.22,Active,1,LEO,USA,USA,Commercial,Communications,Falcon,1 51774U 22017G   25295.15333687  .00000501  00000+0  49574-4 0  9993,2 51774  53.2168 241.0375 0001208  92.3185 267.7946 15.08838799201655,15.08838799,0.0001208,LEO
51775,STARLINK-3620,2022,95.44,260.0,+,53.22,Active,1,LEO,USA,USA,Commercial,Communications,Falcon,1 51775U 22017H   25295.29686019  .00001823  00000+0  13262-3 0  9991,2 51775  53.2172 240.3905 0001483  96.4276 263.6885 15.08836066201712,15.08836066,0.0001483,LEO
51776,STARLINK-3608,2022,95.44,260.0,+,53.22,Active,1,LEO,USA,USA,Commercial,Communications,Falcon,1 51776U 22017J   25295.28215227  .00000129  00000+0  26220-4 0  9997,2 51776  53.2174 240.4546 0001134  87.3753 272.7369 15.08820851201677,15.08820851,0.0001134,LEO
51777,STARLINK-3625,2022,95.44,260.0,+,53.22,Active,1,LEO,USA,USA,Commercial,Communications,Falcon,1 51777U 22017K   25295.15429607 -.00001314  00000+0 -64465-4 0  9995,2 51777  53.2178 241.0053 0001445 102.9212 257.1942 15.08837410201685,15.0883741,0.0001445,LEO
51778,STARLINK-3615,2022,95.44,260.0,+,53.22,Active,1,LEO,USA,USA,Commercial,Communications,Falcon,1 51778U 22017L   25295.09168821 -.00000289  00000+0 -58509-7 0  9992,2 51778  53.2165 231.1863 0001485  87.7369 272.3793 15.08837903201633,15.08837903,0.0001485,LEO
