[{"OBJECT_NAME":"STARLINK-3460","OBJECT_ID":"2022-016AT","EPOCH":"2025-10-22T04:27:10.848672","MEAN_MOTION":15.08830666,"ECCENTRICITY":0.00014389,"INCLINATION":53.217,"RA_OF_ASC_NODE":210.8892,"ARG_OF_PERICENTER":89.5319,"MEAN_ANOMALY":270.5838,"EPHEMERIS_TYPE":0,"CLASSIFICATION_TYPE":"U","NORAD_CAT_ID":51755,"ELEMENT_SET_NO":999,"REV_AT_EPOCH":20279,"BSTAR":8.793512e-5,"MEAN_MOTION_DOT":1.111e-5,"MEAN_MOTION_DDOT":0},{"OBJECT_NAME":"STARLINK-3513","OBJECT_ID":"2022-016AU","EPOCH":"2025-10-22T11:41:42.662112","MEAN_MOTION":15.08841796,"ECCENTRICITY":0.000127,"INCLINATION":53.2175,"RA_OF_ASC_NODE":209.5349,"ARG_OF_PERICENTER":88.5356,"MEAN_ANOMALY":271.5781,"EPHEMERIS_TYPE":0,"CLASSIFICATION_TYPE":"U","NORAD_CAT_ID":51756,"ELEMENT_SET_NO":999,"REV_AT_EPOCH":20284,"BSTAR":0.00013752,"MEAN_MOTION_DOT":1.902e-5,"MEAN_MOTION_DDOT":0},{"OBJECT_NAME":"STARLINK-3459","OBJECT_ID":"2022-016AV","EPOCH":"2025-10-22T11:37:46.777152","MEAN_MOTION":15.0884804,"ECCENTRICITY":0.0001245,"INCLINATION":53.218,"RA_OF_ASC_NODE":209.5567,"ARG_OF_PERICENTER":76.3517,"MEAN_ANOMALY":283.7613,"EPHEMERIS_TYPE":0,"CLASSIFICATION_TYPE":"U","NORAD_CAT_ID":51757,"ELEMENT_SET_NO":999,"REV_AT_EPOCH":20284,"BSTAR":0.00014142,"MEAN_MOTION_DOT":1.964e-5,"MEAN_MOTION_DDOT":0},{"OBJECT_NAME":"STARLINK-3458","OBJECT_ID":"2022-016AW","EPOCH":"2025-10-22T11:25:48.438912","MEAN_MOTION":15.08838411,"ECCENTRICITY":0.0001436,"INCLINATION":53.2164,"RA_OF_ASC_NODE":209.5372,"ARG_OF_PERICENTER":84.0297,"MEAN_ANOMALY":276.0858,"EPHEMERIS_TYPE":0,"CLASSIFICATION_TYPE":"U","NORAD_CAT_ID":51758,"ELEMENT_SET_NO":999,"REV_AT_EPOCH":20398,"BSTAR":-4.5239e-5,"MEAN_MOTION_DOT":-1.008e-5,"MEAN_MOTION_DDOT":0},{"OBJECT_NAME":"STARLINK-3456","OBJECT_ID":"2022-016AX","EPOCH":"2025-10-22T11:31:06.672576","MEAN_MOTION":15.08839111,"ECCENTRICITY":0.0001721,"INCLINATION":53.2159,"RA_OF_ASC_NODE":209.5671,"ARG_OF_PERICENTER":78.3445,"MEAN_ANOMALY":281.7741,"EPHEMERIS_TYPE":0,"CLASSIFICATION_TYPE":"U","NORAD_CAT_ID":51759,"ELEMENT_SET_NO":999,"REV_AT_EPOCH":20284,"BSTAR":4.1638e-5,"MEAN_MOTION_DOT":3.75e-6,"MEAN_MOTION_DDOT":0},{"OBJECT_NAME":"STARLINK-3622","OBJECT_ID":"2022-017A","EPOCH":"2025-10-22T05:53:17.427840","MEAN_MOTION":15.08836356,"ECCENTRICITY":0.00011862,"INCLINATION":53.2151,"RA_OF_ASC_NODE":240.623,"ARG_OF_PERICENTER":84.1079,"MEAN_ANOMALY":276.0049,"EPHEMERIS_TYPE":0,"CLASSIFICATION_TYPE":"U","NORAD_CAT_ID":51768,"ELEMENT_SET_NO":999,"REV_AT_EPOCH":20314,"BSTAR":0.00014123299,"MEAN_MOTION_DOT":1.96e-5,"MEAN_MOTION_DDOT":0},{"OBJECT_NAME":"STARLINK-3621","OBJECT_ID":"2022-017B","EPOCH":"2025-10-22T05:42:41.436576","MEAN_MOTION":15.08837877,"ECCENTRICITY":0.00014121,"INCLINATION":53.218,"RA_OF_ASC_NODE":240.6557,"ARG_OF_PERICENTER":94.5456,"MEAN_ANOMALY":265.5698,"EPHEMERIS_TYPE":0,"CLASSIFICATION_TYPE":"U","NORAD_CAT_ID":51769,"ELEMENT_SET_NO":999,"REV_AT_EPOCH":20170,"BSTAR":0.0001972632,"MEAN_MOTION_DOT":2.853e-5,"MEAN_MOTION_DDOT":0},{"OBJECT_NAME":"STARLINK-3612","OBJECT_ID":"2022-017C","EPOCH":"2025-10-22T05:47:59.315136","MEAN_MOTION":15.08840133,"ECCENTRICITY":0.00013963,"INCLINATION":53.2182,"RA_OF_ASC_NODE":240.6384,"ARG_OF_PERICENTER":91.6703,"MEAN_ANOMALY":268.445,"EPHEMERIS_TYPE":0,"CLASSIFICATION_TYPE":"U","NORAD_CAT_ID":51770,"ELEMENT_SET_NO":999,"REV_AT_EPOCH":20171,"BSTAR":0.00014864292,"MEAN_MOTION_DOT":2.079e-5,"MEAN_MOTION_DDOT":0},{"OBJECT_NAME":"STARLINK-3614","OBJECT_ID":"2022-017D","EPOCH":"2025-10-22T05:37:22.302624","MEAN_MOTION":15.08851538,"ECCENTRICITY":0.00016265,"INCLINATION":53.2183,"RA_OF_ASC_NODE":240.6625,"ARG_OF_PERICENTER":82.5781,"MEAN_ANOMALY":277.5396,"EPHEMERIS_TYPE":0,"CLASSIFICATION_TYPE":"U","NORAD_CAT_ID":51771,"ELEMENT_SET_NO":999,"REV_AT_EPOCH":20170,"BSTAR":0.00020136873,"MEAN_MOTION_DOT":2.919e-5,"MEAN_MOTION_DDOT":0},{"OBJECT_NAME":"STARLINK-3623","OBJECT_ID":"2022-017E","EPOCH":"2025-10-22T03:51:24.637248","MEAN_MOTION":15.08836903,"ECCENTRICITY":0.00016222,"INCLINATION":53.2181,"RA_OF_ASC_NODE":241.0033,"ARG_OF_PERICENTER":99.1375,"MEAN_ANOMALY":260.98,"EPHEMERIS_TYPE":0,"CLASSIFICATION_TYPE":"U","NORAD_CAT_ID":51772,"ELEMENT_SET_NO":999,"REV_AT_EPOCH":20168,"BSTAR":-2.5699665e-5,"MEAN_MOTION_DOT":-6.97e-6,"MEAN_MOTION_DDOT":0},{"OBJECT_NAME":"STARLINK-3624","OBJECT_ID":"2022-017F","EPOCH":"2025-10-22T05:33:27.938304","MEAN_MOTION":15.08839812,"ECCENTRICITY":0.000172,"INCLINATION":53.2176,"RA_OF_ASC_NODE":240.6564,"ARG_OF_PERICENTER":96.0267,"MEAN_ANOMALY":264.0921,"EPHEMERIS_TYPE":0,"CLASSIFICATION_TYPE":"U","NORAD_CAT_ID":51773,"ELEMENT_SET_NO":999,"REV_AT_EPOCH":20170,"BSTAR":0.00010958635,"MEAN_MOTION_DOT":1.456e-5,"MEAN_MOTION_DDOT":0},{"OBJECT_NAME":"STARLINK-3629","OBJECT_ID":"2022-017G","EPOCH":"2025-10-22T03:40:48.305568","MEAN_MOTION":15.08838799,"ECCENTRICITY":0.00012081,"INCLINATION":53.2168,"RA_OF_ASC_NODE":241.0375,"ARG_OF_PERICENTER":92.3185,"MEAN_ANOMALY":267.7946,"EPHEMERIS_TYPE":0,"CLASSIFICATION_TYPE":"U","NORAD_CAT_ID":51774,"ELEMENT_SET_NO":999,"REV_AT_EPOCH":20165,"BSTAR":4.957356e-5,"MEAN_MOTION_DOT":5.01e-6,"MEAN_MOTION_DDOT":0},{"OBJECT_NAME":"STARLINK-3620","OBJECT_ID":"2022-017H","EPOCH":"2025-10-22T07:07:28.720416","MEAN_MOTION":15.08836066,"ECCENTRICITY":0.00014836,"INCLINATION":53.2172,"RA_OF_ASC_NODE":240.3905,"ARG_OF_PERICENTER":96.4276,"MEAN_ANOMALY":263.6885,"EPHEMERIS_TYPE":0,"CLASSIFICATION_TYPE":"U","NORAD_CAT_ID":51775,"ELEMENT_SET_NO":999,"REV_AT_EPOCH":20171,"BSTAR":0.00013261948,"MEAN_MOTION_DOT":1.823e-5,"MEAN_MOTION_DDOT":0},{"OBJECT_NAME":"STARLINK-3608","OBJECT_ID":"2022-017J","EPOCH":"2025-10-22T06:46:17.956128","MEAN_MOTION":15.08820851,"ECCENTRICITY":0.00011344,"INCLINATION":53.2174,"RA_OF_ASC_NODE":240.4546,"ARG_OF_PERICENTER":87.3753,"MEAN_ANOMALY":272.7369,"EPHEMERIS_TYPE":0,"CLASSIFICATION_TYPE":"U","NORAD_CAT_ID":51776,"ELEMENT_SET_NO":999,"REV_AT_EPOCH":20167,"BSTAR":2.622007e-5,"MEAN_MOTION_DOT":1.29e-6,"MEAN_MOTION_DDOT":0},{"OBJECT_NAME":"STARLINK-3625","OBJECT_ID":"2022-017K","EPOCH":"2025-10-22T03:42:11.180448","MEAN_MOTION":15.0883741,"ECCENTRICITY":0.00014457,"INCLINATION":53.2178,"RA_OF_ASC_NODE":241.0053,"ARG_OF_PERICENTER":102.9212,"MEAN_ANOMALY":257.1942,"EPHEMERIS_TYPE":0,"CLASSIFICATION_TYPE":"U","NORAD_CAT_ID":51777,"ELEMENT_SET_NO":999,"REV_AT_EPOCH":20168,"BSTAR":-6.4465228e-5,"MEAN_MOTION_DOT":-1.314e-5,"MEAN_MOTION_DDOT":0},{"OBJECT_NAME":"STARLINK-3615","OBJECT_ID":"2022-017L","EPOCH":"2025-10-22T02:12:01.861344","MEAN_MOTION":15.08837903,"ECCENTRICITY":0.00014851,"INCLINATION":53.2165,"RA_OF_ASC_NODE":231.1863,"ARG_OF_PERICENTER":87.7369,"MEAN_ANOMALY":272.3793,"EPHEMERIS_TYPE":0,"CLASSIFICATION_TYPE":"U","NORAD_CAT_ID":51778,"ELEMENT_SET_NO":999,"REV_AT_EPOCH":20163,"BSTAR":-5.8509e-8,"MEAN_MOTION_DOT":-2.89e-6,"MEAN_MOTION_DDOT":0}]
